<kml xmlns='http://www.opengis.net/kml/2.2'>
  <Document>
    <Placemark>
      <name>RAMON (Central)</name>
      <Point>
        <coordinates>-0.2852777778,41.0091666667,0</coordinates>
      </Point>
    </Placemark>
    <Placemark>
      <name>NEXAS</name>
      <Point>
        <coordinates>-0.7927777778,40.8711111111,0</coordinates>
      </Point>
    </Placemark>
    <Placemark>
      <name>SALAS</name>
      <Point>
        <coordinates>0.4763888889,41.1097222222,0</coordinates>
      </Point>
    </Placemark>
    <Placemark>
      <LineString>
        <tessellate>1</tessellate>
        <coordinates>
          -0.2852777778,41.0091666667,0
          -0.7927777778,40.8711111111,0
        </coordinates>
      </LineString>
    </Placemark>
    <Placemark>
      <LineString>
        <tessellate>1</tessellate>
        <coordinates>
          0.4763888889,41.1097222222,0
          -0.2852777778,41.0091666667,0
        </coordinates>
      </LineString>
    </Placemark>
  </Document>
</kml>
