<kml xmlns='http://www.opengis.net/kml/2.2'>
  <Document>
    <Placemark>
      <name>Camino más corto</name>
      <LineString>
        <tessellate>1</tessellate>
        <coordinates>
          3.8069444444,41.0152777778,0
          3.9919444444,40.5,0
        </coordinates>
      </LineString>
    </Placemark>
    <Placemark>
      <name>TOSNU</name>
      <Point>
        <coordinates>3.8069444444,41.0152777778,0</coordinates>
      </Point>
    </Placemark>
    <Placemark>
      <name>SARGO</name>
      <Point>
        <coordinates>3.9919444444,40.5,0</coordinates>
      </Point>
    </Placemark>
  </Document>
</kml>
