<kml xmlns='http://www.opengis.net/kml/2.2'>
  <Document>
    <Placemark>
      <name>Camino más corto</name>
      <LineString>
        <tessellate>1</tessellate>
        <coordinates>
          -0.2852777778,41.0091666667,0
          -0.7927777778,40.8711111111,0
          0.0616666667,40.8722222222,0
          0.385,40.8711111111,0
          0.2699069167,40.55538575,0
          0.385,40.8711111111,0
          0.0616666667,40.8722222222,0
          -0.0638888889,40.5580555556,0
          -0.1833333333,40.2561111111,0
          -0.2077777778,39.6741666667,0
          -0.0047222222,39.8338888889,0
        </coordinates>
      </LineString>
    </Placemark>
    <Placemark>
      <name>RAMON</name>
      <Point>
        <coordinates>-0.2852777778,41.0091666667,0</coordinates>
      </Point>
    </Placemark>
    <Placemark>
      <name>NEXAS</name>
      <Point>
        <coordinates>-0.7927777778,40.8711111111,0</coordinates>
      </Point>
    </Placemark>
    <Placemark>
      <name>CRETA</name>
      <Point>
        <coordinates>0.0616666667,40.8722222222,0</coordinates>
      </Point>
    </Placemark>
    <Placemark>
      <name>DORMI</name>
      <Point>
        <coordinates>0.385,40.8711111111,0</coordinates>
      </Point>
    </Placemark>
    <Placemark>
      <name>ARLE0</name>
      <Point>
        <coordinates>0.2699069167,40.55538575,0</coordinates>
      </Point>
    </Placemark>
    <Placemark>
      <name>DORMI</name>
      <Point>
        <coordinates>0.385,40.8711111111,0</coordinates>
      </Point>
    </Placemark>
    <Placemark>
      <name>CRETA</name>
      <Point>
        <coordinates>0.0616666667,40.8722222222,0</coordinates>
      </Point>
    </Placemark>
    <Placemark>
      <name>RIMES</name>
      <Point>
        <coordinates>-0.0638888889,40.5580555556,0</coordinates>
      </Point>
    </Placemark>
    <Placemark>
      <name>SAURA</name>
      <Point>
        <coordinates>-0.1833333333,40.2561111111,0</coordinates>
      </Point>
    </Placemark>
    <Placemark>
      <name>SGO</name>
      <Point>
        <coordinates>-0.2077777778,39.6741666667,0</coordinates>
      </Point>
    </Placemark>
    <Placemark>
      <name>SOPET</name>
      <Point>
        <coordinates>-0.0047222222,39.8338888889,0</coordinates>
      </Point>
    </Placemark>
  </Document>
</kml>
