<kml xmlns='http://www.opengis.net/kml/2.2'>
  <Document>
    <Placemark>
      <name>Camino más corto</name>
      <LineString>
        <tessellate>1</tessellate>
        <coordinates>
          4.685,39.0,0
          4.9930555556,39.6066666667,0
          4.6666666667,39.5855555556,0
        </coordinates>
      </LineString>
    </Placemark>
    <Placemark>
      <name>OTARO</name>
      <Point>
        <coordinates>4.685,39.0,0</coordinates>
      </Point>
    </Placemark>
    <Placemark>
      <name>RISEP</name>
      <Point>
        <coordinates>4.9930555556,39.6066666667,0</coordinates>
      </Point>
    </Placemark>
    <Placemark>
      <name>SOTAX</name>
      <Point>
        <coordinates>4.6666666667,39.5855555556,0</coordinates>
      </Point>
    </Placemark>
  </Document>
</kml>
